0 PALAPA B4
1 21964U 92027A   20007.89054354 -.00000261 +00000-0 +00000-0 0  9999
2 21964 010.9108 033.1173 0007050 313.1901 048.1739 00.99947335023681
0 DELTA 2 R/B(1)
1 21965U 92027B   20007.89134346 +.00000425 +00000-0 +70017-4 0  9990
2 21965 019.6760 275.7917 1375342 079.0972 296.0708 12.18486433228533
0 DELTA 2 R/B(1)
1 21965U 92027B   20008.38290729  .00000424  00000-0  69588-4 0  9993
2 21965  19.6759 273.5943 1375349  83.1006 292.3414 12.18486632228193
0 DELTA 2 R/B(2)
1 21966U 92027C   20007.50102256 -.00000175 +00000-0 +00000-0 0  9998
2 21966 021.7845 194.9995 6464856 315.0860 007.8957 02.05328694207443
0 DELTA 1 DEB
1 21969U 75052JV  20007.49456435 +.00000042 +00000-0 +14347-3 0  9993
2 21969 098.9943 208.4600 0112462 114.2361 279.5793 13.37869491384946
0 THOR ABLESTAR DEB *
1 21970U 61015ML  20007.76426744 +.00000651 +00000-0 +40341-4 0  9999
2 21970 065.9845 019.3373 0244835 118.5846 244.0155 14.97318424491258
0 THOR ABLESTAR DEB *
1 21970U 61015ML  20008.43220865  .00000679  00000-0  41665-4 0  9990
2 21970  65.9845  17.3337 0244793 118.1427 244.4669 14.97319751492440
0 DELTA 1 DEB
1 21972U 75052JW  20008.80552299  .00000038  00000-0  22021-3 0  9991
2 21972  99.6610 118.2023 0334987 341.9823 169.8030 12.91547951311191
0 DELTA 1 DEB
1 21972U 75052JW  20007.79913211 +.00000115 +00000-0 +44480-3 0  9992
2 21972 099.6610 117.3201 0334973 344.2560 170.4989 12.91547619310672
0 COSMOS 2187
1 21976U 92030A   20007.53655788 -.00000016 +00000-0 +15434-5 0  9995
2 21976 074.0025 034.5725 0051075 307.7728 206.4522 12.55691821264916
0 COSMOS 2187
1 21976U 92030A   20008.15214278 -.00000017  00000-0 -67556-6 0  9994
2 21976  74.0025  33.7442 0051083 306.8500 109.1875 12.55691823265250
0 COSMOS 2188
1 21977U 92030B   20007.72449508 -.00000015 +00000-0 +97480-5 0  9998
2 21977 074.0043 348.3615 0059052 247.5343 287.1677 12.57507293266749
0 COSMOS 2188
1 21977U 92030B   20008.42727038 -.00000019  00000-0 -14127-4 0  9994
2 21977  74.0044 347.4128 0059045 246.4763 228.6390 12.57507296267112
0 COSMOS 2189
1 21978U 92030C   20007.68238576 -.00000012 +00000-0 +27888-4 0  9996
2 21978 074.0030 077.5967 0040647 354.9257 174.1111 12.53984705263236
0 COSMOS 2190
1 21979U 92030D   20007.59409626 -.00000021 +00000-0 -34961-4 0  9994
2 21979 074.0024 121.4299 0031046 049.5571 322.7420 12.52242340261486
0 COSMOS 2191
1 21980U 92030E   20007.62828664 -.00000029 +00000-0 -91455-4 0  9996
2 21980 074.0049 314.2444 0018029 013.0221 160.5932 12.44533510253472
0 COSMOS 2191
1 21980U 92030E   20008.33909093 -.00000017  00000-0 -60298-5 0  9990
2 21980  74.0039 313.3081 0018041  12.0006 105.1892 12.44533465254067
0 COSMOS 2192
1 21981U 92030F   20007.42945883 -.00000010 +00000-0 +40975-4 0  9998
2 21981 074.0027 261.5197 0009532 279.0106 255.8496 12.46653707255897
0 COSMOS 2193
1 21982U 92030G   20007.74467322 -.00000021 +00000-0 -36726-4 0  9993
2 21982 074.0008 167.3232 0020998 105.6355 266.9535 12.50415194259699
0 COSMOS 2193
1 21982U 92030G   20008.18021435 -.00000018  00000-0 -15779-4 0  9994
2 21982  74.0009 166.7430 0020994 104.9495  67.5721 12.50415215259962
0 COSMOS 2194
1 21983U 92030H   20007.32398829 +.00000008 +00000-0 +16372-3 0  9990
2 21983 074.0002 217.1636 0017096 196.2425 337.2519 12.48435143257667
0 SL-8 R/B
1 21984U 92030J   20007.60427742 +.00000035 +00000-0 +46293-3 0  9994
2 21984 074.0015 137.7558 0124346 313.9513 056.0814 12.22230912231198
0 SL-8 R/B
1 21984U 92030J   20008.13284906  .00000031  00000-0  42308-3 0  9995
2 21984  74.0015 137.0880 0124357 313.2010 221.8112 12.22230990231555
0 DELTA 1 DEB
1 21985U 75052JX  20007.35544050 +.00000779 +00000-0 +77041-3 0  9994
2 21985 099.5415 156.6544 0034862 303.9778 085.5762 13.81527920378684
0 DELTA 1 DEB
1 21985U 75052JX  20008.36919917  .00000709  00000-0  70490-3 0  9998
2 21985  99.5413 157.6790 0035120 301.2857  87.5268 13.81528871389875
0 THOR ABLESTAR DEB
1 21986U 61015MM  20007.51576169 +.00000059 +00000-0 +82337-4 0  9999
2 21986 066.8769 273.8603 0102260 308.9275 224.0534 14.04811950422308
0 SL-14 DEB
1 21997U 78100AS  20007.68351839 +.00023294 +00000-0 +26914-1 0  9999
2 21997 082.5723 087.7632 0285111 127.0955 235.6617 13.53072072314533
0 SL-14 DEB
1 21997U 78100AS  20008.20114414  .00023872  00000-0  27582-1 0  9998
2 21997  82.5725  87.3742 0284789 125.7063 237.0942 13.53101892 95893
0 COSMOS 2195
1 22006U 92036A   20008.52521427  .00000059  00000-0  45967-4 0  9997
2 22006  82.9340   2.3700 0036958 356.1968 117.8978 13.74945163380958
0 COSMOS 2195
1 22006U 92036A   20007.73661034 +.00000062 +00000-0 +49131-4 0  9999
2 22006 082.9339 002.9549 0037012 358.4081 174.4521 13.74945075380849
0 SL-8 R/B
1 22007U 92036B   20008.59416628  .00000043  00000-0  27968-4 0  9995
2 22007  82.9331 323.8640 0029315 216.5323 143.3835 13.77969570312262
0 IABS R/B
1 22011U 92037C   20006.83583298 -.00000152 +00000-0 +00000-0 0  9990
2 22011 014.3083 353.5514 0022549 022.8042 337.3152 01.01651074002419
0 NAVSTAR 26 (USA 83)
1 22014U 92039A   20007.95341190  .00000125  00000-0  00000+0 0  9990
2 22014  55.2268 199.2698 0003467 261.2902  98.7147  1.87912124192884
0 SL-8 DEB
1 22025U 91009CJ  20007.13188326 +.00000028 +00000-0 +34420-3 0  9997
2 22025 073.9397 259.9414 0144526 162.5613 348.6223 12.31407056295655
0 INSAT 2A
1 22027U 92041A   20007.85329373 -.00000295 +00000-0 +00000-0 0  9995
2 22027 014.8336 010.9634 0007859 267.8091 275.3697 01.00214070100482
0 INSAT 2A
1 22027U 92041A   20008.35579255 -.00000296  00000-0  00000+0 0  9997
2 22027  14.8336  10.9586 0007847 267.8668  96.6054  1.00213898100472
0 EUTELSAT 2-F4
1 22028U 92041B   20007.85250861 -.00000284 +00000-0 +00000-0 0  9999
2 22028 013.5912 023.1410 0007309 253.6467 272.8110 00.99079880023477
0 EUTELSAT 2-F4
1 22028U 92041B   20007.92412942 -.00000284  00000-0  00000+0 0  9996
2 22028  13.5913  23.1404 0007309 253.8357 298.1690  0.99079849 92926
0 ARIANE 44L R/B
1 22032U 92041C   20008.19069339  .00495553 -70519-6  79858-3 0  9995
2 22032   7.0176 323.2128 4879203 228.2146  78.5048  6.03760205363655
0 ARIANE 44L R/B
1 22032U 92041C   20008.52122232  .00476484 -76182-6  76901-3 0  9994
2 22032   7.0179 322.7133 4877468 229.2013  77.1031  6.04062866363671
0 COSMOS 2197
1 22034U 92042A   20008.17633914  .00000001  00000-0 -53330-4 0  9992
2 22034  82.5953 291.7262 0011308 221.7975 275.3511 12.64164115268382
0 COSMOS 2197
1 22034U 92042A   20007.55123601 -.00000001 +00000-0 -61011-4 0  9996
2 22034 082.5954 292.1255 0011288 223.3141 310.4176 12.64164129268013
0 COSMOS 2198
1 22035U 92042B   20007.56469762 +.00000008 +00000-0 -12706-4 0  9992
2 22035 082.5980 312.7309 0004826 248.9504 111.1071 12.62603017266513
0 COSMOS 2198
1 22035U 92042B   20008.35710754 -.00000005  00000-0 -84530-4 0  9992
2 22035  82.5985 312.2261 0004811 246.7347 113.3238 12.62603054266863
0 COSMOS 2199
1 22036U 92042C   20008.68548686  .00000005  00000-0 -32310-4 0  9990
2 22036  82.6000 333.2054 0010104 249.1504 284.7866 12.60978860265272
0 COSMOS 2199
1 22036U 92042C   20007.65395279 +.00000007 +00000-0 -19717-4 0  9992
2 22036 082.6004 333.8599 0010076 251.6725 281.9239 12.60978942264876
0 COSMOS 2200
1 22037U 92042D   20007.87695965 -.00000004 +00000-0 -79084-4 0  9993
2 22037 082.5891 297.2638 0006605 250.4682 183.9654 12.63246445267198
0 COSMOS 2200
1 22037U 92042D   20008.20218750 -.00000003  00000-0 -74351-4 0  9995
2 22037  82.5892 297.0562 0006609 249.6117 223.1179 12.63246420267473
0 COSMOS 2201
1 22038U 92042E   20007.38784854 +.00000003 +00000-0 -44375-4 0  9999
2 22038 082.5913 317.6977 0007379 242.6500 234.9902 12.61707902265580
0 COSMOS 2201
1 22038U 92042E   20008.58954815  .00000008  00000-0 -15322-4 0  9993
2 22038  82.5913 316.9330 0007386 239.5785 293.6397 12.61707945265995
0 COSMOS 2202
1 22039U 92042F   20008.59938725  .00000008  00000-0 -15732-4 0  9992
2 22039  82.5978 311.5086 0007017 235.7170 297.4906 12.62590436266886
0 COSMOS 2202
1 22039U 92042F   20007.64899424 +.00000002 +00000-0 -48543-4 0  9999
2 22039 082.5977 312.1138 0007000 238.1555 297.3617 12.62590396266519
0 SL-14 R/B
1 22040U 92042G   20007.54381826 +.00000030 +00000-0 +11927-3 0  9997
2 22040 082.6046 043.9438 0042626 100.5956 015.0761 12.55323876259236
0 SL-14 R/B
1 22040U 92042G   20008.49890394  .00000038  00000-0  16355-3 0  9995
2 22040  82.6045  43.3441 0042633  98.5125  11.2124 12.55323932259655
0 GORIZONT 26
1 22041U 92043A   20007.60021524 -.00000016 +00000-0 +00000-0 0  9994
2 22041 015.0286 003.1411 0029838 219.9522 299.6979 00.99244368100123
0 GORIZONT 26
1 22041U 92043A   20008.65413997 -.00000039  00000-0  00000+0 0  9993
2 22041  15.0283   3.1314 0029826 219.9583 316.2517  0.99244820100156
0 SL-12 R/B(2)
1 22044U 92043D   20007.85085112 -.00000144  00000-0  00000+0 0  9998
2 22044  15.6482   4.7359 0020413 128.9200  47.2631  0.97831942 96539
0 SL-12 R/B(2)
1 22044U 92043D   20007.85085112 -.00000144 +00000-0 +00000-0 0  9999
2 22044 015.6482 004.7359 0020413 128.9200 047.2631 00.97831942096540
0 COSMOS 2206 (GLONASS)
1 22056U 92047A   20006.98349412 -.00000021 +00000-0 +00000-0 0  9999
2 22056 064.8847 024.0742 0011068 253.6517 267.8239 02.13107564213471
0 COSMOS 2204 (GLONASS)
1 22057U 92047B   20007.62220535 -.00000019 +00000-0 +00000-0 0  9993
2 22057 064.8958 024.2108 0014111 332.3035 030.8748 02.13104170213401
0 SL-12 R/B(AUX MOTOR)
1 22066U 92047G   20008.02878286 -.00000036  00000-0 -65911-3 0  9995
2 22066  65.1407 293.9098 5525427 256.1639  39.4237  4.34763264429421
0 TOPEX/POSEIDON
1 22076U 92052A   20007.87548465 -.00000055 +00000-0 +26831-4 0  9996
2 22076 066.0416 339.1780 0008150 269.3861 120.3257 12.81024433282237
